{
  "norad_id": 67853,
  "name": "STARLINK-36785",
  "history": [
    {
      "epoch": "2026-05-02T05:36:08.309664Z",
      "apogee_km": 475.74229233432743,
      "perigee_km": 474.8623107280109,
      "latitude_deg": -1.0854807198292069e-05,
      "longitude_deg": 11.337061755733087,
      "height_km": 475.8011719569817,
      "semi_major_axis_km": 6853.439301531169,
      "eccentricity": 6.42e-05,
      "inclination_deg": 53.1574,
      "raan_deg": 315.5261,
      "arg_perigee_deg": 24.5456,
      "mean_anomaly_deg": 335.5575,
      "mean_motion_rev_day": 15.30170785
    },
    {
      "epoch": "2026-05-03T17:39:20.642112Z",
      "apogee_km": 476.234166031255,
      "perigee_km": 474.0164503483247,
      "latitude_deg": 4.647388625758319e-05,
      "longitude_deg": -177.92474622821464,
      "height_km": 475.0382108282891,
      "semi_major_axis_km": 6853.262308189789,
      "eccentricity": 0.0001618,
      "inclination_deg": 53.1562,
      "raan_deg": 308.5463,
      "arg_perigee_deg": 27.2839,
      "mean_anomaly_deg": 332.8247,
      "mean_motion_rev_day": 15.30230063
    },
    {
      "epoch": "2026-05-04T18:44:11.327424Z",
      "apogee_km": 475.9151559038428,
      "perigee_km": 474.55818791680394,
      "latitude_deg": 6.066066596927586e-05,
      "longitude_deg": 159.98424231923687,
      "height_km": 475.90302088018063,
      "semi_major_axis_km": 6853.373671910323,
      "eccentricity": 9.9e-05,
      "inclination_deg": 53.1589,
      "raan_deg": 303.6965,
      "arg_perigee_deg": 69.9997,
      "mean_anomaly_deg": 290.1111,
      "mean_motion_rev_day": 15.30192765
    },
    {
      "epoch": "2026-05-05T18:14:57.086880Z",
      "apogee_km": 476.494834919009,
      "perigee_km": 474.03172285877645,
      "latitude_deg": -7.03348145646145e-06,
      "longitude_deg": 161.77349103953532,
      "height_km": 475.16343704462287,
      "semi_major_axis_km": 6853.400278888893,
      "eccentricity": 0.0001797,
      "inclination_deg": 53.1576,
      "raan_deg": 299.1421,
      "arg_perigee_deg": 35.8718,
      "mean_anomaly_deg": 324.2403,
      "mean_motion_rev_day": 15.30183854
    },
    {
      "epoch": "2026-05-06T17:45:47.308032Z",
      "apogee_km": 476.1452879649678,
      "perigee_km": 474.45248930047546,
      "latitude_deg": 2.5136537995519995e-05,
      "longitude_deg": 163.54877283598702,
      "height_km": 475.89292802677016,
      "semi_major_axis_km": 6853.435888632722,
      "eccentricity": 0.0001235,
      "inclination_deg": 53.159,
      "raan_deg": 294.5923,
      "arg_perigee_deg": 68.9451,
      "mean_anomaly_deg": 291.1682,
      "mean_motion_rev_day": 15.30171928
    },
    {
      "epoch": "2026-05-07T17:16:35.774400Z",
      "apogee_km": 476.0777779953123,
      "perigee_km": 474.37129097322577,
      "latitude_deg": -5.647023019239287e-05,
      "longitude_deg": 165.3331017469313,
      "height_km": 475.84783831780635,
      "semi_major_axis_km": 6853.361534484268,
      "eccentricity": 0.0001245,
      "inclination_deg": 53.1593,
      "raan_deg": 290.0443,
      "arg_perigee_deg": 71.2098,
      "mean_anomaly_deg": 288.9037,
      "mean_motion_rev_day": 15.3019683
    },
    {
      "epoch": "2026-05-08T19:55:29.186688Z",
      "apogee_km": 475.91563053634036,
      "perigee_km": 474.3722716661514,
      "latitude_deg": -2.2211455927414347e-05,
      "longitude_deg": 119.35757130642074,
      "height_km": 475.97674290447884,
      "semi_major_axis_km": 6853.280951101246,
      "eccentricity": 0.0001126,
      "inclination_deg": 53.1598,
      "raan_deg": 284.8857,
      "arg_perigee_deg": 85.1326,
      "mean_anomaly_deg": 274.9803,
      "mean_motion_rev_day": 15.30223819
    },
    {
      "epoch": "2026-05-09T16:18:11.151936Z",
      "apogee_km": 476.67944703259127,
      "perigee_km": 473.7489540592378,
      "latitude_deg": -7.125197165748108e-07,
      "longitude_deg": 168.89712229316993,
      "height_km": 476.3655861093034,
      "semi_major_axis_km": 6853.351200545914,
      "eccentricity": 0.0002138,
      "inclination_deg": 53.1567,
      "raan_deg": 280.937,
      "arg_perigee_deg": 100.0169,
      "mean_anomaly_deg": 260.1073,
      "mean_motion_rev_day": 15.30200291
    },
    {
      "epoch": "2026-05-10T18:57:05.546592Z",
      "apogee_km": 476.0485400731277,
      "perigee_km": 474.37769331467825,
      "latitude_deg": 1.2291129299883236e-05,
      "longitude_deg": 122.9253734872371,
      "height_km": 475.9009051285473,
      "semi_major_axis_km": 6853.350116693903,
      "eccentricity": 0.0001219,
      "inclination_deg": 53.1597,
      "raan_deg": 275.7863,
      "arg_perigee_deg": 75.4145,
      "mean_anomaly_deg": 284.6991,
      "mean_motion_rev_day": 15.30200654
    },
    {
      "epoch": "2026-05-11T18:27:53.968032Z",
      "apogee_km": 477.0028529967203,
      "perigee_km": 473.4171818372088,
      "latitude_deg": -2.7840635642723296e-05,
      "longitude_deg": 124.70502419162013,
      "height_km": 475.95226865601086,
      "semi_major_axis_km": 6853.347017416964,
      "eccentricity": 0.0002616,
      "inclination_deg": 53.1602,
      "raan_deg": 271.2334,
      "arg_perigee_deg": 85.0756,
      "mean_anomaly_deg": 275.0543,
      "mean_motion_rev_day": 15.30201692
    },
    {
      "epoch": "2026-05-12T02:18:09.528768Z",
      "apogee_km": 476.414119479954,
      "perigee_km": 473.9806375088383,
      "latitude_deg": 4.7934581220306e-05,
      "longitude_deg": 5.30066318535563,
      "height_km": 475.9913288782667,
      "semi_major_axis_km": 6853.334378494396,
      "eccentricity": 0.00017754,
      "inclination_deg": 53.16,
      "raan_deg": 269.7157,
      "arg_perigee_deg": 85.1241,
      "mean_anomaly_deg": 274.9963,
      "mean_motion_rev_day": 15.30205925
    },
    {
      "epoch": "2026-05-13T12:47:19.684608Z",
      "apogee_km": 475.79552223173505,
      "perigee_km": 474.6016711707898,
      "latitude_deg": 5.1077853218526266e-05,
      "longitude_deg": -160.08314569191654,
      "height_km": 476.0079803506882,
      "semi_major_axis_km": 6853.335596701262,
      "eccentricity": 8.71e-05,
      "inclination_deg": 53.1579,
      "raan_deg": 263.0405,
      "arg_perigee_deg": 81.4243,
      "mean_anomaly_deg": 278.6857,
      "mean_motion_rev_day": 15.30205517
    },
    {
      "epoch": "2026-05-14T07:35:57.905952Z",
      "apogee_km": 476.18619318112724,
      "perigee_km": 474.1573396539179,
      "latitude_deg": -4.91879349050874e-06,
      "longitude_deg": -86.654167236075,
      "height_km": 476.0168961061028,
      "semi_major_axis_km": 6853.308766417523,
      "eccentricity": 0.00014802,
      "inclination_deg": 53.1566,
      "raan_deg": 259.4013,
      "arg_perigee_deg": 87.0448,
      "mean_anomaly_deg": 273.0722,
      "mean_motion_rev_day": 15.30214503
    },
    {
      "epoch": "2026-05-14T15:26:13.978176Z",
      "apogee_km": 476.43752588523967,
      "perigee_km": 473.9552485323911,
      "latitude_deg": -8.899814456886286e-06,
      "longitude_deg": 153.93617534405232,
      "height_km": 475.8497365084304,
      "semi_major_axis_km": 6853.333387208815,
      "eccentricity": 0.0001811,
      "inclination_deg": 53.1577,
      "raan_deg": 257.8805,
      "arg_perigee_deg": 78.6727,
      "mean_anomaly_deg": 281.4477,
      "mean_motion_rev_day": 15.30206257
    }
  ]
}